{
  "norad_id": 68843,
  "name": "STARLINK-37219",
  "history": [
    {
      "epoch": "2026-05-02T10:00:03.000096Z",
      "apogee_km": 269.41257652987133,
      "perigee_km": 267.7894431078739,
      "latitude_deg": -73.13180539256406,
      "longitude_deg": -79.0269187592442,
      "height_km": 296.31831944110814,
      "semi_major_axis_km": 6646.738009818872,
      "eccentricity": 0.0001221,
      "inclination_deg": 97.2794,
      "raan_deg": 136.0853,
      "arg_perigee_deg": 79.6538,
      "mean_anomaly_deg": 174.9382,
      "mean_motion_rev_day": 16.02101108
    }
  ]
}