{"fetched_at":"2026-05-03T06:27:58Z","count":17151,"tles":[{"name":"STARLINK-37219","line1":"1 68843U 26094E   26122.41670139 -.01742900  94138-3 -30773-2 0  9999","line2":"2 68843  97.2794 136.0853 0001221  79.6538 174.9382 16.02101108  2005","category":"Starlink"}]}